HIMAWARI-8              
1 40267U 14060A   24076.57225501 -.00000288  00000+0  00000+0 0  9993
2 40267   0.0227 169.0616 0001178 158.7298 193.5111  1.00271311 34518
